ONEWEB-0300             
1 49089U 21075Q   25017.20705511  .00000329  00000+0  88053-3 0  9991
2 49089  87.8862  93.3999 0001436 105.1666 254.9622 13.12440636167523
ONEWEB-0301             
1 49090U 21075R   25017.57202600  .00000479  00000+0  12954-2 0  9996
2 49090  87.8861  93.3317 0001535 107.2327 252.8969 13.12442305166935
ONEWEB-0302             
1 49091U 21075S   25017.25411803  .00000160  00000+0  40842-3 0  9994
2 49091  87.8863  93.3951 0002288 105.2864 254.8517 13.12443549166877
ONEWEB-0304             
1 49092U 21075T   25017.25799560  .00000093  00000+0  20642-3 0  9995
2 49092  87.9098 108.6578 0001910 100.4645 259.6701 13.17647602165631
ONEWEB-0305             
1 49093U 21075U   25017.25124738  .00000065  00000+0  13525-3 0  9996
2 49093  87.9095 108.6406 0001946  90.7933 269.3421 13.17647579165662
ONEWEB-0308             
1 49094U 21075V   25017.24760993 -.00000070  00000+0 -22911-3 0  9992
2 49094  87.8862  93.3931 0001751 104.5258 255.6064 13.12443630166888
ONEWEB-0309             
1 49095U 21075W   25017.33056443  .00000107  00000+0  24312-3 0  9997
2 49095  87.9098 108.6359 0002280 110.4552 249.6824 13.17648009165648
ONEWEB-0310             
1 49096U 21075X   25017.26221082  .00000421  00000+0  11355-2 0  9994
2 49096  87.8872  93.4180 0001952 105.5596 254.5748 13.12443094167519
